#dP2021  3 20  0  0  0.00000000      96 __u+U ITR00 FIT  IAC
## 2149 518400.00000000   900.00000000 59293 0.0000000000000
+  117   C01C02C04C05C06C07C08C09C10C11C12C13C14C16C19C20C21
+        C22C23C24C25C26C27C28C29C30C32C33C34C35C36C37C46E01
+        E02E03E04E05E07E08E09E11E12E13E14E15E18E19E21E24E25
+        E26E27E30E31E33E36G01G02G03G04G05G06G07G08G09G10G11
+        G12G13G14G15G16G17G18G19G20G21G22G23G24G25G26G27G28
+        G29G30G31G32J01J02J03J07R01R02R03R04R05R06R07R08R09
+        R10R11R12R13R14R15R16R17R18R19R20R21R22R23R24  0  0
++        13 13 13 14 11 10 10 10 10  9  9 10  9 11  9  9  8
++         9  9  8  8  9  8  8  9  9  9  9  9  9 10 10 10  6
++         5  5  6  5  5  5  5  5  5  6  6  6  5  5  5  5  5
++         5  5  6  7  6 10  4  5  4  4  5  4  5  4  4  5  6
++         4  5  4  5  5  4  5  4  5  5  4  5  7  4  4  5  4
++         5  5  4  4 10  9  9 14  8  6  6  6  7 14  6  6  6
++        14  8  6  8  6  6  8  6  6  8  8  6  8 13  6  0  0
%c M  cc GPS ccc cccc cccc cccc cccc ccccc ccccc ccccc ccccc
%c cc cc ccc ccc cccc cccc cccc cccc ccccc ccccc ccccc ccccc
%f  0.0000000  0.000000000  0.00000000000  0.000000000000000
%f  0.0000000  0.000000000  0.00000000000  0.000000000000000
%i    0    0    0    0      0      0      0      0         0
%i    0    0    0    0      0      0      0      0         0
/* INFORMATION & ANALYSIS CENTER (IAC)            RAPID DATA
/* S/V CLOCKS ARE ALIGNED TO GNSS TIME                      
/* G:C1WC2W R:C1PC2P E:C1XC5X C:C2IC6I J:C1CC2S             
/* PCV:IGS14_2134 OL/AL:FES2004  NONE     YN ORB:CoN CLK:CoN
*  2021 03 20  2 30  0.00000000
PC01 -34339.760427  24503.938747    185.174098   -639.499915
PC02   4496.143021  41898.987241   -712.586711    425.231620
PC04 -39622.626215  14433.473756   -477.987015    868.176791
PC05  21962.891972  35990.891414   -467.197815     31.422676
PC06 -23675.879926  30771.945539  16267.346959    193.870260
PC07 -10935.307268  35303.923921  20993.177815    -34.713030
PC08 -13033.945791  17369.895320 -36054.562882   -898.907070
PC09 -10687.481592  30093.743871  27589.875519    656.273509
PC10   -161.696715  41343.807882   9598.961705    -69.089387
PC11  17818.062479 -17800.876804  12042.357346   -858.772721
PC12  25730.622443  -9290.898069  -5441.842781    877.975663
PC13   2607.915060  24560.240273 -34012.005095    187.265544
PC14   8941.332743 -23630.052915  11816.786621    253.904517
PC16 -20517.847874  31252.613670  19379.409567   -742.527731
PC19  -2763.541822  27630.879288  -2829.345639    767.918219
PC20 -12804.018070  17307.631009 -17750.958913   -933.343076
PC21  15665.714168   3975.111482  22772.942120   -894.249076
PC22   9120.024508  22269.866567  14161.019793   -924.221695
PC23 -18332.830941 -19101.810008  -8828.690625   -878.818911
PC24  17557.626507  -6419.252266 -20723.703501   -787.781043
PC25  -1708.890984 -18411.329970 -20914.889175   -945.780691
PC26  25256.959845   7598.221062  -9072.092123    932.982483
PC27 -24217.194226   1762.777592  13717.275381    501.487548
PC28 -10654.897199 -12174.981663  22740.792154    -96.376612
PC29  -8369.891114  19267.836054 -18371.600367    367.334669
PC30 -23194.425589  15233.814159  -2814.304563    453.717594
PC32 -15690.942585  -3833.156038 -22735.727332   -916.669761
PC33   2708.060285 -27608.211272   2956.726259   -945.770919
PC34  22944.202942 -15528.094241   3469.487613   -715.088091
PC35  10833.924881  12034.818289 -22733.984741   -366.639333
PC36    889.584776  18311.326086  21056.935365   -739.814871
PC37 -25144.932587  -8853.856492   8298.307957   -879.317567
PC46 -16834.442200   7035.399709  21125.531742    355.025648
PE01 -20650.801738 -10029.544979  18685.679928  -1069.184329
PE02  20634.409120   9883.495508 -18775.702654    206.232458
PE03  18999.337076  -1225.078824  22663.108830   -410.801107
PE04 -19326.198734  19913.819548 -10293.421157   -732.528897
PE05   7514.528742  18445.717546  21901.189477   -295.645108
PE07   8244.629714 -27162.407097  -8367.116101   -514.955865
PE08  19080.569229 -20254.205080  10080.796717   6030.555262
PE09  -8025.300575  27184.951886   8560.611922   5729.043286
PE11  -4892.704192  16084.549815 -24361.499380   6187.785621
PE12 -24455.005576   9586.002275 -13617.369708   5301.691898
PE13   5371.877886 -15990.048034  24333.979800    413.800516
PE14 -20970.307551  18795.923762   2367.686122  -1367.780415
PE15  24422.477211  -9653.409718  13679.856904    823.780576
PE18  24071.752705  -7648.440694 -14042.349522  -1495.791274
PE19 -18067.526869  -1142.447777 -23410.670648    231.161766
PE21 -16677.395662 -24321.584810   2591.387139   -654.580360
PE24   2120.417280  24767.683782  16032.782467   -801.995158
PE25  16584.231776  24393.277425  -2417.738727   -528.879043
PE26 -17472.739499 -12847.346301  20151.259662   2022.028611
PE27  -2855.532236 -25039.778130 -15538.012050      6.772689
PE30  13199.820114 -10192.238966 -24469.160716   3093.051138
PE31 -12568.202447  11026.881029  24427.219906   -479.336637
PE33 -29067.087295  -2370.787638   5031.333011   -466.698106
PE36  16851.072094  12896.419232 -20634.941194   -182.288265
PG01  17233.031898  13769.790734 -15290.886728    737.181901
PG02   7382.454522 -14398.702958  21728.094162   -587.784121
PG03  13046.066417  21993.130952   7305.021614   -112.914877
PG04   7396.721108  13989.948805  21330.335735   -187.193791
PG05  -2641.267394 -24613.085862   9225.211812    -36.701087
PG06  19947.005601  -7161.035784  16110.244056      1.788151
PG07  25689.995886   7249.529497   3032.240390     95.524643
PG08    615.001916  19053.970734 -18361.938157    -14.389140
PG09  16294.919591   3316.822776  20655.094350   -332.472976
PG10 -14361.094028   4372.278183 -21800.763324    -84.596622
PG11  11302.136231  13075.680009 -20548.451860      5.969103
PG12  -9449.033661 -24563.818049   3897.180663    -16.348748
PG13   9781.007590 -20912.910195 -13151.280820    109.869404
PG14  15072.115779  -2877.940928 -21692.310294     99.727361
PG15  -3610.774098 -19082.259638 -18322.565521   -161.955077
PG16  -1977.777986  23578.416086  11337.682927   -296.665236
PG17  21132.945123 -12241.366382 -10006.128544    412.550934
PG18 -26131.258403  -4845.806902   -927.731282    350.852711
PG19  20469.409838 -16632.155473  -2919.925088    -24.074893
PG20 -18657.271549 -10408.001441 -15949.996926    524.033156
PG21  10368.932653  14658.929781 -18996.281059    104.500558
PG22   9947.645964  24648.406143  -1836.247194   -656.743176
PG23 -17002.331822  -7525.619988 -19002.490820    117.044293
PG24 -12399.588547 -15112.727197 -18393.605573      0.829584
PG25 -16209.661972 -14873.910839  14814.208196    102.225479
PG26  -7773.430280  17069.863463  18649.324625     60.493044
PG27 -10394.739454  22258.308665  -9769.320440    -97.229827
PG28  13700.869160  -5562.647042 -21517.308582    599.572565
PG29 -15924.637742  -3656.717365  20904.895250   -314.969468
PG30  24861.843166  -1747.138883  -9454.322503   -400.921541
PG31 -18231.035620   8664.576477  17414.731280   -106.620408
PG32 -20382.859351  14157.262736  -9119.805646     21.450363
PJ01 -22365.374152  31457.317367 -12371.397991   -356.601362
PJ02 -25483.382561  21709.283589  30523.766657      3.695298
PJ03 -35687.661657  21394.659766  -2284.001186     -1.991447
PJ07 -25394.276977  33653.506770     25.724791     -0.012761
PR01 -11887.714085  11207.006672 -19590.182305     76.646443
PR02  -6483.768125  24570.368374  -1783.974127    471.450999
PR03   2649.210455  20583.478511  14841.000006     32.700860
PR04   9913.261251   5049.812449  22983.534252     78.651931
PR05  11815.515381 -13295.297478  18307.489849     68.462928
PR06   5393.556937 -24928.799307    872.373908    194.715769
PR07  -2875.006660 -20268.182433 -15207.719147    -42.551656
PR08 -10006.501175  -5041.983016 -22858.675107    -58.031156
PR09  -1015.804257 -14666.576426 -20814.573336    -16.265970
PR10 -14683.368590 -18868.114573  -9009.843339    -67.273232
PR11 -20386.624479 -12401.779126   9008.469645      2.108903
PR12 -13638.121775   1464.493278  21531.819013    213.977959
PR13    759.855281  14205.233921  21150.525105    -52.233582
PR14  15091.997512  18941.314492   8031.141556     62.202347
PR15  20211.730917  12429.681144  -9343.387829    104.829823
PR16  12946.497980  -2793.356556 -21801.810771    -12.739893
PR17   6291.250885   8993.411274 -23012.953955    409.444744
PR18  20792.502919    610.660712 -14789.882605     70.377914
PR19  24511.490282  -7050.066819    516.713741   -136.391626
PR20  13090.449679 -12045.679289  18313.932422    -45.608655
PR21  -7509.141521  -8462.785789  22865.607317   -195.655012
PR22 -21292.042775   -138.663398  13953.817887   -103.488142
PR23 -22067.417950  10202.275849  -7710.436151    373.166564
PR24 -12120.183479  12589.263453 -18565.137407     35.662616
EOF
